NORAD_CAT_ID,OBJECT_NAME,OBJECT_TYPE,EPOCH,MEAN_MOTION,ECCENTRICITY,INCLINATION,RA_OF_ASC_NODE,ARG_OF_PERICENTER,MEAN_ANOMALY,BSTAR,MEAN_MOTION_DOT,MEAN_MOTION_DDOT,TLE_LINE0,TLE_LINE1,TLE_LINE2,SEMIMAJOR_AXIS,PERIOD,APOGEE,PERIGEE,DECAYED
53143.0,STARLINK-4102,PAYLOAD,2023-05-30 02:36:24,15.08835406,9.84e-05,53.2182,48.7519,86.5609,273.5496,2.423e-05,9.8e-07,0.0,0 STARLINK-4102,1 53143U 22083M   23150.10861780  .00000098  00000-0  24230-4 0  9995,2 53143  53.2182  48.7519 0000984  86.5609 273.5496 15.08835406 48680,6917.894,95.438,540.44,539.079,0.0
53143.0,STARLINK-4102,PAYLOAD,2023-05-30 16:54:52,15.08846537,0.0001054,53.2189,46.0749,97.8587,262.2525,-1.5151e-06,-3.12e-06,0.0,0 STARLINK-4102,1 53143U 22083M   23150.70477290 -.00000312  00000-0 -15151-5 0  9994,2 53143  53.2189  46.0749 0001054  97.8587 262.2525 15.08846537 48777,6917.86,95.437,540.455,538.996,0.0
53143.0,STARLINK-4102,PAYLOAD,2023-05-30 21:41:01,15.08848035,0.0001126,53.2184,45.1861,69.286,290.8253,5.1982e-05,5.4e-06,0.0,0 STARLINK-4102,1 53143U 22083M   23150.90349054  .00000540  00000-0  51982-4 0  9994,2 53143  53.2184  45.1861 0001126  69.2860 290.8253 15.08848035 48178,6917.856,95.437,540.5,538.942,0.0
53143.0,STARLINK-4102,PAYLOAD,2023-05-31 02:27:10,15.08854263,0.0001101,53.2182,44.2917,103.8412,256.2702,0.0001236,1.681e-05,0.0,0 STARLINK-4102,1 53143U 22083M   23151.10220317  .00001681  00000-0  12360-3 0  9990,2 53143  53.2182  44.2917 0001101 103.8412 256.2702 15.08854263 48837,6917.837,95.437,540.463,538.94,0.0
53143.0,STARLINK-4102,PAYLOAD,2023-05-31 21:31:48,15.0884135,0.000119,53.2176,40.7226,93.8788,266.234,0.00013621,1.881e-05,0.0,0 STARLINK-4102,1 53143U 22083M   23151.89709380  .00001881  00000-0  13621-3 0  9991,2 53143  53.2176  40.7226 0001190  93.8788 266.2340 15.08841350 48322,6917.876,95.437,540.564,538.918,0.0
53143.0,STARLINK-4102,PAYLOAD,2023-06-01 02:17:57,15.08844685,0.0001171,53.2177,39.8305,94.1957,265.9169,0.00015065,2.111e-05,0.0,0 STARLINK-4102,1 53143U 22083M   23152.09580864  .00002111  00000-0  15065-3 0  9999,2 53143  53.2177  39.8305 0001171  94.1957 265.9169 15.08844685 48982,6917.866,95.437,540.541,538.921,0.0
53143.0,STARLINK-4102,PAYLOAD,2023-06-01 21:22:35,15.08844844,0.0001145,53.2181,36.2611,95.8227,264.2895,-1.5557e-05,-5.35e-06,0.0,0 STARLINK-4102,1 53143U 22083M   23152.89069240 -.00000535  00000-0 -15557-4 0  9994,2 53143  53.2181  36.2611 0001145  95.8227 264.2895 15.08844844 48476,6917.866,95.437,540.523,538.938,0.0
53143.0,STARLINK-4102,PAYLOAD,2023-06-01 22:57:58,15.08845863,0.0001075,53.2175,35.9671,80.0368,280.0745,4.548e-05,4.36e-06,0.0,0 STARLINK-4102,1 53143U 22083M   23152.95693027  .00000436  00000-0  45480-4 0  9993,2 53143  53.2175  35.9671 0001075  80.0368 280.0745 15.08845863 49119,6917.862,95.437,540.471,538.984,0.0
53143.0,STARLINK-4102,PAYLOAD,2023-06-02 21:13:23,15.08838544,0.0001124,53.2174,31.8044,81.3238,278.7882,-4.2105e-06,-3.55e-06,0.0,0 STARLINK-4102,1 53143U 22083M   23153.88429785 -.00000355  00000-0 -42105-5 0  9998,2 53143  53.2174  31.8044 0001124  81.3238 278.7882 15.08838544 48621,6917.885,95.438,540.527,538.972,0.0
53143.0,STARLINK-4102,PAYLOAD,2023-06-02 22:48:46,15.08840108,0.0001129,53.2178,31.5061,82.1787,277.9333,1.6572e-06,-2.61e-06,0.0,0 STARLINK-4102,1 53143U 22083M   23153.95053658 -.00000261  00000-0  16572-5 0  9992,2 53143  53.2178  31.5061 0001129  82.1787 277.9333 15.08840108 49266,6917.88,95.438,540.526,538.964,0.0
53143.0,STARLINK-4102,PAYLOAD,2023-06-03 05:10:18,15.08843309,0.0001157,53.218,30.3159,84.2848,275.8276,3.6755e-05,2.97e-06,0.0,0 STARLINK-4102,1 53143U 22083M   23154.21549361  .00000297  00000-0  36755-4 0  9995,2 53143  53.2180  30.3159 0001157  84.2848 275.8276 15.08843309 48679,6917.87,95.437,540.536,538.935,0.0
53143.0,STARLINK-4102,PAYLOAD,2023-06-03 21:04:10,15.08838646,0.0001163,53.218,27.3427,83.2898,276.8227,5.0116e-05,5.1e-06,0.0,0 STARLINK-4102,1 53143U 22083M   23154.87789864  .00000510  00000-0  50116-4 0  9996,2 53143  53.2180  27.3427 0001163  83.2898 276.8227 15.08838646 48770,6917.885,95.438,540.554,538.945,0.0
53143.0,STARLINK-4102,PAYLOAD,2023-06-04 01:50:19,15.08844595,0.0001105,53.2178,26.451,87.0475,273.0644,9.8453e-05,1.28e-05,0.0,0 STARLINK-4102,1 53143U 22083M   23155.07661348  .00001280  00000-0  98453-4 0  9996,2 53143  53.2178  26.4510 0001105  87.0475 273.0644 15.08844595 49435,6917.866,95.437,540.496,538.967,0.0
53143.0,STARLINK-4102,PAYLOAD,2023-06-04 19:19:34,15.08836962,0.000109,53.2179,23.1798,89.6673,270.4444,3.9678e-05,3.44e-06,0.0,0 STARLINK-4102,1 53143U 22083M   23155.80526146  .00000344  00000-0  39678-4 0  9997,2 53143  53.2179  23.1798 0001090  89.6673 270.4444 15.08836962 49549,6917.89,95.438,540.509,539.001,0.0
53143.0,STARLINK-4102,PAYLOAD,2023-06-04 20:54:57,15.08837809,0.0001092,53.2179,22.8825,89.3844,270.7273,4.345e-05,4.04e-06,0.0,0 STARLINK-4102,1 53143U 22083M   23155.87150076  .00000404  00000-0  43450-4 0  9999,2 53143  53.2179  22.8825 0001092  89.3844 270.7273 15.08837809 48920,6917.887,95.438,540.508,538.997,0.0
53143.0,STARLINK-4102,PAYLOAD,2023-06-05 00:05:43,15.08842943,0.0001101,53.2179,22.2878,89.2592,270.8526,8.366e-05,1.044e-05,0.0,0 STARLINK-4102,1 53143U 22083M   23156.00397636  .00001044  00000-0  83660-4 0  9998,2 53143  53.2179  22.2878 0001101  89.2592 270.8526 15.08842943 49571,6917.871,95.437,540.498,538.975,0.0
53143.0,STARLINK-4102,PAYLOAD,2023-06-05 19:10:21,15.08841907,0.0001082,53.2182,18.7171,113.286,246.8246,5.8875e-05,6.49e-06,0.0,0 STARLINK-4102,1 53143U 22083M   23156.79885765  .00000649  00000-0  58875-4 0  9999,2 53143  53.2182  18.7171 0001082 113.2860 246.8246 15.08841907 49060,6917.875,95.437,540.488,538.991,0.0
53143.0,STARLINK-4102,PAYLOAD,2023-06-05 23:56:30,15.0884355,0.0001131,53.2178,17.8264,97.5699,262.5422,0.00014201,1.973e-05,0.0,0 STARLINK-4102,1 53143U 22083M   23156.99757515  .00001973  00000-0  14201-3 0  9997,2 53143  53.2178  17.8264 0001131  97.5699 262.5422 15.08843550 49727,6917.87,95.437,540.517,538.952,0.0
53143.0,STARLINK-4102,PAYLOAD,2023-06-06 19:01:08,15.08842108,9.88e-05,53.2176,14.2594,91.1936,268.917,3.6341e-05,2.91e-06,0.0,0 STARLINK-4102,1 53143U 22083M   23157.79245894  .00000291  00000-0  36341-4 0  9990,2 53143  53.2176  14.2594 0000988  91.1936 268.9170 15.08842108 49217,6917.874,95.437,540.422,539.055,0.0
53143.0,STARLINK-4102,PAYLOAD,2023-06-06 23:47:17,15.08845633,0.0001037,53.2177,13.3648,98.6331,261.4779,5.3433e-05,5.63e-06,0.0,0 STARLINK-4102,1 53143U 22083M   23157.99117528  .00000563  00000-0  53433-4 0  9997,2 53143  53.2177  13.3648 0001037  98.6331 261.4779 15.08845633 49247,6917.863,95.437,540.446,539.011,0.0
53143.0,STARLINK-4102,PAYLOAD,2023-06-07 20:27:19,15.08838233,0.0001064,53.2174,9.5002,102.0061,258.1051,-3.3883e-05,-8.27e-06,0.0,0 STARLINK-4102,1 53143U 22083M   23158.85230363 -.00000827  00000-0 -33883-4 0  9998,2 53143  53.2174   9.5002 0001064 102.0061 258.1051 15.08838233 49373,6917.886,95.438,540.487,539.015,0.0
53143.0,STARLINK-4102,PAYLOAD,2023-06-07 22:02:41,15.08841767,0.0001095,53.2187,9.2013,98.2041,261.9076,-6.0649e-06,-3.84e-06,0.0,0 STARLINK-4102,1 53143U 22083M   23158.91854066 -.00000384  00000-0 -60649-5 0  9996,2 53143  53.2187   9.2013 0001095  98.2041 261.9076 15.08841767 50012,6917.875,95.437,540.497,538.982,0.0
53143.0,STARLINK-4102,PAYLOAD,2023-06-08 13:56:33,15.08839881,0.0001015,53.2177,6.2292,89.2094,270.9015,7.849e-05,9.62e-06,0.0,0 STARLINK-4102,1 53143U 22083M   23159.58094008  .00000962  00000-0  78490-4 0  9994,2 53143  53.2177   6.2292 0001015  89.2094 270.9015 15.08839881 49483,6917.881,95.438,540.448,539.044,0.0
53143.0,STARLINK-4102,PAYLOAD,2023-06-09 13:47:20,15.08841435,9.88e-05,53.2179,1.772,72.9574,287.1526,-2.9737e-05,-7.61e-06,0.0,0 STARLINK-4102,1 53143U 22083M   23160.57454516 -.00000761  00000-0 -29737-4 0  9998,2 53143  53.2179   1.7720 0000988  72.9574 287.1526 15.08841435 49633,6917.876,95.437,540.424,539.058,0.0
53143.0,STARLINK-4102,PAYLOAD,2023-06-09 16:58:07,15.08838038,9.74e-05,53.2174,1.1761,76.426,283.684,-1.2459e-05,-4.86e-06,0.0,0 STARLINK-4102,1 53143U 22083M   23160.70702604 -.00000486  00000-0 -12459-4 0  9994,2 53143  53.2174   1.1761 0000974  76.4260 283.6840 15.08838038 50281,6917.886,95.438,540.425,539.078,0.0
53143.0,STARLINK-4102,PAYLOAD,2023-06-09 20:08:53,15.08835925,9.87e-05,53.2174,0.5809,79.9267,280.1836,4.2362e-05,3.86e-06,0.0,0 STARLINK-4102,1 53143U 22083M   23160.83950554  .00000386  00000-0  42362-4 0  9990,2 53143  53.2174   0.5809 0000987  79.9267 280.1836 15.08835925 49676,6917.893,95.438,540.441,539.075,0.0
53143.0,STARLINK-4102,PAYLOAD,2023-06-10 13:38:07,15.08839563,0.0001117,53.2172,357.3091,87.7395,272.3725,5.072e-06,-2.07e-06,0.0,0 STARLINK-4102,1 53143U 22083M   23161.56814563 -.00000207  00000-0  50720-5 0  9991,2 53143  53.2172 357.3091 0001117  87.7395 272.3725 15.08839563 49789,6917.882,95.438,540.519,538.974,0.0
53143.0,STARLINK-4102,PAYLOAD,2023-06-10 21:35:03,15.08844359,0.0001068,53.2178,355.8215,84.6757,275.4357,2.9963e-05,1.89e-06,0.0,0 STARLINK-4102,1 53143U 22083M   23161.89934129  .00000189  00000-0  29963-4 0  9990,2 53143  53.2178 355.8215 0001068  84.6757 275.4357 15.08844359 49839,6917.867,95.437,540.471,538.993,0.0
53143.0,STARLINK-4102,PAYLOAD,2023-06-10 23:10:25,15.08847398,0.0001093,53.2172,355.5249,86.7999,273.3118,7.2152e-05,8.61e-06,0.0,0 STARLINK-4102,1 53143U 22083M   23161.96557840  .00000861  00000-0  72152-4 0  9994,2 53143  53.2172 355.5249 0001093  86.7999 273.3118 15.08847398 50476,6917.858,95.437,540.479,538.967,0.0
53143.0,STARLINK-4102,PAYLOAD,2023-06-11 13:28:55,15.08833305,0.0001142,53.2171,352.8493,91.4125,268.6998,5.9886e-05,6.65e-06,0.0,0 STARLINK-4102,1 53143U 22083M   23162.56174855  .00000665  00000-0  59886-4 0  9993,2 53143  53.2171 352.8493 0001142  91.4125 268.6998 15.08833305 49930,6917.901,95.438,540.556,538.976,0.0
